ORBCOMM FM24 [-]        
1 25478U 98053D   24096.54770976  .00001167  00000+0  45097-3 0  9999
2 25478  45.0077 179.8906 0002870 225.9254 134.1357 14.35462716334505
ORBCOMM FM25 [-]        
1 25479U 98053E   24096.58310855  .00001030  00000+0  40404-3 0  9996
2 25479  45.0070 177.9649 0005459 224.9632 135.0774 14.35444143334807
ORBCOMM FM26 [-]        
1 25480U 98053F   24096.57642078  .00000854  00000+0  34661-3 0  9993
2 25480  45.0064 171.9713 0007660 239.2099 120.7994 14.34914573334746
ORBCOMM FM27 [+]        
1 25481U 98053G   24096.50122641  .00001142  00000+0  44265-3 0  9998
2 25481  45.0053 178.6160 0001819 253.2678 106.7969 14.35424577334729
ORBCOMM FM28 [-]        
1 25482U 98053H   24096.42894351  .00000985  00000+0  38524-3 0  9999
2 25482  45.0053 117.5419 0006030 269.8304  90.1852 14.35866091335389
ORBCOMM FM30 [-]        
1 25980U 99065A   24096.40253933  .00001096  00000+0  42989-3 0  9993
2 25980  45.0336 358.2861 0006889 338.1234  21.9319 14.35057998271517
ORBCOMM FM31 [-]        
1 25981U 99065B   24096.78585444  .00000953  00000+0  38033-3 0  9996
2 25981  45.0247 350.1958 0003963   2.4413 357.6453 14.35063288272098
ORBCOMM FM32 [+]        
1 25982U 99065C   24096.46378567  .00001015  00000+0  40988-3 0  9990
2 25982  45.0179   5.2659 0006554   0.7699 359.3157 14.34033773271718
